#dP2018  3 27  0  0  0.00000000      96 __u+U ITR00 FIT  IAC
## 1994 172800.00000000   900.00000000 58204 0.0000000000000
+   89   C01C02C03C04C05C06C07C08C09C10C11C12C13C14E01E02E03
+        E04E05E07E08E09E11E12E14E18E19E24E26E30G01G02G03G04
+        G05G06G07G08G09G10G11G12G13G14G15G16G17G18G19G20G21
+        G22G23G24G25G26G27G28G29G30G31G32J01J02J03R01R02R03
+        R04R05R06R07R08R09R10R11R13R14R15R16R17R18R19R20R21
+        R22R23R24R26  0  0  0  0  0  0  0  0  0  0  0  0  0
++         0  0  0  0  0  0  0  0  0  0  0  0  0  0  0  0  0
++         0  0  0  0  0  0  0  0  0  0  0  0  0  0  0  0  0
++         0  0  0  0  0  0  0  0  0  0  0  0  0  0  0  0  0
++         0  0  0  0  0  0  0  0  0  0  0  0  0  0  0  0  0
++         0  0  0  0  0  0  0  0  0  0  0  0  0  0  0  0  0
++         0  0  0  0  0  0  0  0  0  0  0  0  0  0  0  0  0
%c M  cc GPS ccc cccc cccc cccc cccc ccccc ccccc ccccc ccccc
%c cc cc ccc ccc cccc cccc cccc cccc ccccc ccccc ccccc ccccc
%f  0.0000000  0.000000000  0.00000000000  0.000000000000000
%f  0.0000000  0.000000000  0.00000000000  0.000000000000000
%i    0    0    0    0      0      0      0      0         0
%i    0    0    0    0      0      0      0      0         0
/*                                                          
/*   RSA / INFORMATION & ANALYSIS CENTER (IAC) OF MCC       
/*   ULTRA-RAPID DETERMINATION                              
/* PCV:IGS14_1992 OL/AL:FES2004  NONE     YN ORB:CoN CLK:CoN
*  2018 03 27  2  0  0.00000000
PC01 -32318.484565  27087.783955    -51.400548    534.129714
PC02   4509.684054  41909.396546   -734.435313    649.333260
PC03 -14759.592543  39448.872580   -706.888508   -245.786755
PC04 -39604.757956  14444.663989   -292.475848   -192.016819
PC05  21926.077313  35988.455952   -822.205594   -190.964650
PC06 -22914.732574  27540.589408  22223.772007    427.264048
PC07 -12303.919990  38466.425157  12965.823396    918.064790
PC08  -9520.157704  20357.486606 -35579.113117    251.733470
PC09  -7812.353252  27085.687935  31420.438665   -277.826624
PC10  -3567.333440  42174.340982   1699.853205   -112.425178
PC11  12179.740314 -12513.086002  21809.733363   -443.643161
PC12  26440.403299  -1387.780323   8738.137965    400.261386
PC13   5807.450772  28862.332140 -30058.241904   -263.100079
PC14  16572.312841 -22398.646689  -1978.979487    330.432931
PE01  14811.665593  11933.829478 -22685.295902   -307.397459
PE02 -14810.250510 -11924.396210  22683.003488      8.726574
PE03 -22226.180460  -3039.492027 -19312.514803    -14.129285
PE04  26625.549245 -12460.933103   3492.498700     -2.223439
PE05  -4777.601383 -16824.771415 -23877.725656    296.389561
PE07 -15410.440449  20729.928608  14467.770186     61.023510
PE08 -26492.116544  12734.932161  -3518.355611   6616.368068
PE09  15299.778133 -20789.630911 -14470.344490   6837.468994
PE11   4850.840253 -16105.884350  24358.114926   1840.219507
PE12  22446.620398  -2197.819531  19193.783344   3801.221177
PE14  18793.008822  16370.448481 -20454.663486   6609.159356
PE18 -19479.760973  -8881.440499  10969.960444   6328.214355
PE19  20964.013178   4400.468895  20436.253751     20.726481
PE24   6463.731329 -27174.277800  -9840.756684   6791.823724
PE26  14937.302668  20460.980772 -15303.401447   6120.029831
PE30 -15082.640964  10852.579085  23025.277286   5970.200782
PG01  19394.566438   8654.980373  15995.058329    -36.668531
PG02 -13664.935853 -22580.694760   4583.452891    162.630468
PG03  16392.782603   -720.704173  20857.342841     37.476130
PG04  -7327.299009  24579.457436  -6528.793004     47.489708
PG05  -6129.209574 -18435.091198 -18118.727040    -11.204166
PG06  -3094.571323 -21859.652129  14782.650914    411.343349
PG07  13334.048419  -7320.663416 -21579.499189    216.941533
PG08  23494.407111   5362.272754 -11281.546350    -95.699771
PG09  23534.394524  -8695.197885  -8769.231129    508.632445
PG10 -10522.473908  24282.965288    819.251442    173.903108
PG11  24070.555382   7241.850889   7797.779333   -737.532941
PG12 -15109.258231  -1961.420408  21543.616802    343.103116
PG13 -15820.635758 -12431.746809 -17449.195186    -95.393828
PG14    592.597887  15328.790585  21970.506791    -95.560916
PG15 -24048.110529  -4250.238606 -11109.799628   -356.081890
PG16   3928.712481  18285.177826 -18829.710860     29.289152
PG17   9157.652017 -14266.840532  20798.915352   -112.320275
PG18  19669.964111  15597.547403   8507.064271    -10.998039
PG19   1922.266948 -14623.636518  21813.393775   -448.078545
PG20 -17221.217090   4586.941834 -19825.843886    504.226176
PG21 -10455.207433  11241.720081 -20875.044152   -414.826264
PG22  14297.413057   7535.598238  21322.022289   -336.846997
PG23  26551.885515     24.673091   3841.462854   -218.375776
PG24 -20422.159299 -10975.705590  13092.639069    -47.763972
PG25 -17367.741254  12448.015052  15443.343324   -559.875069
PG26  -2813.783637  24271.698669 -10252.865067   -203.878680
PG27  12260.025572  12477.324292 -20130.737748    370.003586
PG28  13767.745796 -22675.772914  -1073.958723    700.702131
PG29 -25464.771000   4698.022811  -5880.927944    476.061625
PG30   6917.684009 -16087.090666 -19927.749946     90.965657
PG31   3381.993767  22342.423903  13649.626138    132.702508
PG32  -9606.192713  14924.455678  19763.505278   -525.756451
PJ01 -24654.717956  33193.599224  -3596.417518   -332.682481
PJ02 -24340.019612  23413.425963  29814.857741 999999.999999
PJ03 -34943.585725  18814.418156  -9570.218605 999999.999999
PR01  14747.611579 -18557.660920  -9399.616540     23.946359
PR02  -1474.575944 -12418.739135 -22201.604742    301.766576
PR03 -15768.363712    716.767320 -19984.678651    127.765628
PR04 -20716.854342  13731.691028  -5687.607746    254.832778
PR05 -13579.550452  18601.540350  10968.833329   -271.931852
PR06   2655.871532  11962.013362  22359.335668    129.418584
PR07  16061.490272  -1043.735834  19835.080283    -33.579590
PR08  20815.174393 -13300.428056   6419.373398     22.748829
PR09   6676.081785  23922.185285  -5948.014427     39.087579
PR10  11105.174554  11313.410566 -20035.803658     21.279027
PR11   9381.736598  -8384.559360 -22174.304145    -24.967878
PR13  -7228.392654 -23601.019593   6409.530034     -8.817779
PR14 -11325.843013 -11424.693277  19798.773777     25.796981
PR15 -10057.436529   4239.981651  23049.431845     -7.944118
PR16  -1812.792661  22336.761490  12046.299995     88.771727
PR17 -23631.795423  -9555.372765   1287.815594    119.838911
PR18 -20647.003254   -487.960191 -14903.918591    189.666582
PR19  -6158.982196   8817.122139 -23123.469139    -48.372183
PR20  13112.006332  13603.075563 -17156.420581   -332.104891
PR21  23690.973237   9382.665984   -973.289900     23.537083
PR22  19643.906934   -498.026684  16354.561228    -29.794920
PR23   2304.814955 -10402.686193  23173.217511    144.079450
PR24 -13961.444886 -13371.908821  16609.456914   -164.184935
PR26  12923.914538  13362.036501 -17442.870096      8.155771
EOF
